UserName,City,Street1,Street2,State,ZipCode,Country
kenneth41,West Kevin,5076 Nathan Turnpike Suite 601,Suite 723,Connecticut,58365,United States
brendawilliams,Melindastad,311 Matthew Plaza,Suite 833,New Hampshire,09737,United States
cody52,Ortizview,290 Tracy Cape,Suite 607,South Dakota,70354,United States
ernest31,Martinview,09741 Morris Streets Suite 240,Suite 204,Michigan,43970,United States
teresaevans,Port David,53088 Boyer Ramp,Apt. 121,Louisiana,07438,United States
grantmichelle,Hopkinsmouth,709 Stephens Stravenue Apt. 961,Apt. 962,Alabama,83550,United States
mullinscory,South Michael,476 Anderson Garden Suite 342,Suite 363,Georgia,09487,United States
ymartinez,Calebmouth,2126 Pamela Circles,Apt. 007,Hawaii,35322,United States
ywilliams,Wendyview,85841 Alexis Dam Apt. 179,Apt. 250,North Carolina,49680,United States
ashleepowers,Bowmanberg,611 Carla Crescent Suite 822,Suite 253,New Jersey,53384,United States
james67,Port Nancy,42274 Coleman Pike Suite 888,Apt. 714,California,04127,United States
zoe99,Sarahmouth,688 Allen Garden Apt. 395,Apt. 798,North Dakota,14367,United States
angela59,Jacobshaven,51203 Wilson Alley,Suite 165,Arkansas,35374,United States
phillipchen,Port Sabrinaburgh,6352 Soto Shore,Apt. 038,Washington,87065,United States
umiranda,Marymouth,96916 Brandon Pine,Suite 476,Wyoming,69858,United States
tsanchez,West Beverly,10325 Simmons Rest Suite 408,Suite 342,Indiana,20649,United States
lisaperez,New Jeremy,29922 Collins Plains,Suite 913,Indiana,44659,United States
anunez,East Lorishire,277 Dennis Mills Suite 159,Suite 491,West Virginia,21139,United States
justinward,Anthonyview,2015 Adam Road,Apt. 626,Ohio,87233,United States
mistyrodriguez,Leemouth,848 Briana Land Apt. 225,Suite 778,Ohio,14464,United States
kyleortega,South John,454 Rachel Hollow Apt. 666,Suite 186,Nebraska,44799,United States
olivia37,Novakmouth,5398 Melinda Common Apt. 805,Apt. 051,Hawaii,80329,United States
yjones,North Jonathanberg,8490 Gilbert Branch,Apt. 964,California,80920,United States
millereric,Calhounville,9262 Andrew Harbor,Apt. 865,Louisiana,73609,United States
richardsrandall,Port Christopher,063 Ramirez Union,Apt. 196,Washington,33756,United States
joel93,Lake Davetown,4790 Burke Crossing Apt. 378,Apt. 021,Hawaii,28469,United States
munozjeffrey,New Garyland,81343 Henry Valley,Apt. 749,Arkansas,32856,United States
xsmith,Justinchester,1200 Michael Corner,Apt. 730,Mississippi,86015,United States
jamesthornton,Port Alanchester,396 Meza Square Apt. 064,Apt. 964,Texas,86323,United States
brendafields,New Michaelville,4496 Rivas Extension Suite 471,Suite 233,South Carolina,94975,United States
shelley06,South Christopherfurt,88802 Daugherty Dam,Suite 490,Virginia,89548,United States
paulbradshaw,Grayfurt,847 Green Island,Apt. 401,Oklahoma,71839,United States
dennisroberson,New Matthew,041 Rachel Passage,Apt. 671,Connecticut,29058,United States
vargaskarla,New Scotttown,816 Leach Parkway,Suite 400,New Jersey,61363,United States
cfry,Lake Casey,41681 Powers Unions Apt. 907,Suite 775,Pennsylvania,83934,United States
gsmith,Annehaven,0547 Ashley Knoll Suite 988,Suite 938,Rhode Island,75831,United States
reevesgregory,West Annaland,24597 Snyder Creek Apt. 181,Suite 267,Tennessee,08248,United States
sarah84,Danielville,7287 Newman Creek Suite 794,Apt. 989,Iowa,36709,United States
rcox,Marymouth,4186 Robinson Causeway Suite 487,Suite 466,Vermont,15348,United States
wwarner,Port Jon,9631 Jessica Dale,Apt. 845,Arkansas,26988,United States
reyeslori,Tamishire,7538 Diaz Harbor Suite 879,Suite 472,Kentucky,23613,United States
rmcdonald,Lake Kristyton,42136 Rhodes Orchard Suite 465,Apt. 979,Missouri,15963,United States
tammy37,Smithburgh,14104 Matthew Land,Suite 630,Iowa,08187,United States
megan07,Georgeburgh,026 Li Mall,Suite 358,Utah,24361,United States
gmendoza,Port Mary,0718 Anthony Parkway,Apt. 463,Idaho,08513,United States
kenneth39,Port Kathystad,4756 Larsen Green,Suite 531,Georgia,96503,United States
vkirk,North Allenshire,5944 Williams Unions,Suite 269,Illinois,02449,United States
dennisallen,Murrayshire,64076 Morgan Mission,Apt. 159,Illinois,21303,United States
jtaylor,Victortown,175 Graves Crossroad Suite 351,Suite 460,Louisiana,40526,United States
deanna02,West Jody,18335 Lisa Springs Apt. 988,Suite 454,Montana,63046,United States
